DUPLEX                  
1 66906U 98067XS  26019.21294573  .00029106  00000+0  46918-3 0  9996
2 66906  51.6322 316.2757 0002119  31.9187 328.1931 15.52680954  7437
1998-067XT              
1 66907U 98067XT  26019.21467896  .00086589  00000+0  11714-2 0  9990
2 66907  51.6307 315.5363 0003498  86.3289 273.8102 15.56975255  7446
1998-067XU              
1 66908U 98067XU  26019.08555906  .00072112  00000+0  98239-3 0  9991
2 66908  51.6305 316.1726 0003398  79.2818 280.8557 15.56867641  7422
SILVERSAT               
1 66909U 98067XV  26019.20323160  .00096308  00000+0  12642-2 0  9997
2 66909  51.6306 315.4588 0003716  92.2425 267.8993 15.57734696  7440
1998-067XW              
1 66910U 98067XW  26019.20595577  .00079731  00000+0  10698-2 0  9992
2 66910  51.6297 315.4748 0002291  68.3436 291.7800 15.57236678  7442
1998-067XX              
1 66911U 98067XX  26019.18723148  .00103784  00000+0  13172-2 0  9993
2 66911  51.6293 315.3504 0002455  93.1485 266.9788 15.58600020  7435
1998-067XY              
1 66912U 98067XY  26019.17338473  .00061538  00000+0  88831-3 0  9991
2 66912  51.6311 316.0103 0003243  65.2935 294.8393 15.55368880  7429
