CCSDS_OMM_VERS = 2.0
CREATION_DATE  = 
ORIGINATOR     = 

OBJECT_NAME    = DUPLEX
OBJECT_ID      = 1998-067XS
CENTER_NAME    = EARTH
REF_FRAME      = TEME
TIME_SYSTEM    = UTC
MEAN_ELEMENT_THEORY = SGP/SGP4

EPOCH          = 2026-01-19T05:06:38.511072
MEAN_MOTION    = 15.52680954
ECCENTRICITY   = .00021199
INCLINATION    = 51.6322
RA_OF_ASC_NODE = 316.2757
ARG_OF_PERICENTER = 31.9187
MEAN_ANOMALY   = 328.1931

EPHEMERIS_TYPE = 0
CLASSIFICATION_TYPE = U
NORAD_CAT_ID   = 66906
ELEMENT_SET_NO = 999
REV_AT_EPOCH   = 743
BSTAR          = .46917848E-3
MEAN_MOTION_DOT = .29106E-3
MEAN_MOTION_DDOT = 0

CCSDS_OMM_VERS = 2.0
CREATION_DATE  = 
ORIGINATOR     = 

OBJECT_NAME    = 1998-067XT
OBJECT_ID      = 1998-067XT
CENTER_NAME    = EARTH
REF_FRAME      = TEME
TIME_SYSTEM    = UTC
MEAN_ELEMENT_THEORY = SGP/SGP4

EPOCH          = 2026-01-19T05:09:08.262144
MEAN_MOTION    = 15.56975255
ECCENTRICITY   = .00034982
INCLINATION    = 51.6307
RA_OF_ASC_NODE = 315.5363
ARG_OF_PERICENTER = 86.3289
MEAN_ANOMALY   = 273.8102

EPHEMERIS_TYPE = 0
CLASSIFICATION_TYPE = U
NORAD_CAT_ID   = 66907
ELEMENT_SET_NO = 999
REV_AT_EPOCH   = 744
BSTAR          = .11714152E-2
MEAN_MOTION_DOT = .86589E-3
MEAN_MOTION_DDOT = 0

CCSDS_OMM_VERS = 2.0
CREATION_DATE  = 
ORIGINATOR     = 

OBJECT_NAME    = 1998-067XU
OBJECT_ID      = 1998-067XU
CENTER_NAME    = EARTH
REF_FRAME      = TEME
TIME_SYSTEM    = UTC
MEAN_ELEMENT_THEORY = SGP/SGP4

EPOCH          = 2026-01-19T02:03:12.302784
MEAN_MOTION    = 15.56867641
ECCENTRICITY   = .00033982
INCLINATION    = 51.6305
RA_OF_ASC_NODE = 316.1726
ARG_OF_PERICENTER = 79.2818
MEAN_ANOMALY   = 280.8557

EPHEMERIS_TYPE = 0
CLASSIFICATION_TYPE = U
NORAD_CAT_ID   = 66908
ELEMENT_SET_NO = 999
REV_AT_EPOCH   = 742
BSTAR          = .98238697E-3
MEAN_MOTION_DOT = .72112E-3
MEAN_MOTION_DDOT = 0

CCSDS_OMM_VERS = 2.0
CREATION_DATE  = 
ORIGINATOR     = 

OBJECT_NAME    = SILVERSAT
OBJECT_ID      = 1998-067XV
CENTER_NAME    = EARTH
REF_FRAME      = TEME
TIME_SYSTEM    = UTC
MEAN_ELEMENT_THEORY = SGP/SGP4

EPOCH          = 2026-01-19T04:52:39.210240
MEAN_MOTION    = 15.57734696
ECCENTRICITY   = .00037168
INCLINATION    = 51.6306
RA_OF_ASC_NODE = 315.4588
ARG_OF_PERICENTER = 92.2425
MEAN_ANOMALY   = 267.8993

EPHEMERIS_TYPE = 0
CLASSIFICATION_TYPE = U
NORAD_CAT_ID   = 66909
ELEMENT_SET_NO = 999
REV_AT_EPOCH   = 744
BSTAR          = .12641745E-2
MEAN_MOTION_DOT = .96308E-3
MEAN_MOTION_DDOT = 0

CCSDS_OMM_VERS = 2.0
CREATION_DATE  = 
ORIGINATOR     = 

OBJECT_NAME    = 1998-067XW
OBJECT_ID      = 1998-067XW
CENTER_NAME    = EARTH
REF_FRAME      = TEME
TIME_SYSTEM    = UTC
MEAN_ELEMENT_THEORY = SGP/SGP4

EPOCH          = 2026-01-19T04:56:34.578528
MEAN_MOTION    = 15.57236678
ECCENTRICITY   = .00022915
INCLINATION    = 51.6297
RA_OF_ASC_NODE = 315.4748
ARG_OF_PERICENTER = 68.3436
MEAN_ANOMALY   = 291.7800

EPHEMERIS_TYPE = 0
CLASSIFICATION_TYPE = U
NORAD_CAT_ID   = 66910
ELEMENT_SET_NO = 999
REV_AT_EPOCH   = 744
BSTAR          = .10697509E-2
MEAN_MOTION_DOT = .79731E-3
MEAN_MOTION_DDOT = 0

CCSDS_OMM_VERS = 2.0
CREATION_DATE  = 
ORIGINATOR     = 

OBJECT_NAME    = 1998-067XX
OBJECT_ID      = 1998-067XX
CENTER_NAME    = EARTH
REF_FRAME      = TEME
TIME_SYSTEM    = UTC
MEAN_ELEMENT_THEORY = SGP/SGP4

EPOCH          = 2026-01-19T04:29:36.799872
MEAN_MOTION    = 15.58600020
ECCENTRICITY   = .00024551
INCLINATION    = 51.6293
RA_OF_ASC_NODE = 315.3504
ARG_OF_PERICENTER = 93.1485
MEAN_ANOMALY   = 266.9788

EPHEMERIS_TYPE = 0
CLASSIFICATION_TYPE = U
NORAD_CAT_ID   = 66911
ELEMENT_SET_NO = 999
REV_AT_EPOCH   = 743
BSTAR          = .13171592E-2
MEAN_MOTION_DOT = .103784E-2
MEAN_MOTION_DDOT = 0

CCSDS_OMM_VERS = 2.0
CREATION_DATE  = 
ORIGINATOR     = 

OBJECT_NAME    = 1998-067XY
OBJECT_ID      = 1998-067XY
CENTER_NAME    = EARTH
REF_FRAME      = TEME
TIME_SYSTEM    = UTC
MEAN_ELEMENT_THEORY = SGP/SGP4

EPOCH          = 2026-01-19T04:09:40.440672
MEAN_MOTION    = 15.55368880
ECCENTRICITY   = .00032433
INCLINATION    = 51.6311
RA_OF_ASC_NODE = 316.0103
ARG_OF_PERICENTER = 65.2935
MEAN_ANOMALY   = 294.8393

EPHEMERIS_TYPE = 0
CLASSIFICATION_TYPE = U
NORAD_CAT_ID   = 66912
ELEMENT_SET_NO = 999
REV_AT_EPOCH   = 742
BSTAR          = .88831216E-3
MEAN_MOTION_DOT = .61538E-3
MEAN_MOTION_DDOT = 0

